# ****************************************************************************
# CUI
#
# The Advanced Framework for Simulation, Integration, and Modeling (AFSIM)
#
# The use, dissemination or disclosure of data in this file is subject to
# limitation or restriction. See accompanying README and LICENSE for details.
# ****************************************************************************
# See satellite_types.txt for platform type definitions.

platform BEIDOU_2A(31115) BEIDOU
   orbit
1 31115U 07011A   14241.38080134 -.00000069  00000-0  00000+0 0  1985
2 31115  53.5040   0.7509 0001079 198.4249 161.5868  1.77348156 49960
   end_orbit
end_platform

platform BEIDOU_G1(36287) BEIDOU
   orbit
1 36287U 10001A   14243.77425729 -.00000293  00000-0  10000-3 0  3673
2 36287   1.5603 357.4881 0005127 204.4479 196.6843  1.00268423 16981
   end_orbit
end_platform

platform BEIDOU_G3(36590) BEIDOU
   orbit
1 36590U 10024A   14243.57237756 -.00000365  00000-0  00000+0 0  2207
2 36590   1.6242  32.1652 0002202 302.5256 321.5805  1.00273061 15581
   end_orbit
end_platform

platform BEIDOU_IGSO_1(36828) BEIDOU
   orbit
1 36828U 10036A   14243.76120591 -.00000123  00000-0  10000-3 0  1029
2 36828  54.3952 203.6441 0035552 200.8500 329.3742  1.00265388 15023
   end_orbit
end_platform

platform BEIDOU_G4(37210) BEIDOU
   orbit
1 37210U 10057A   14243.71927493 -.00000122  00000-0  10000-3 0   544
2 37210   0.7748  44.6396 0007709 152.7565 201.3689  1.00271956 14114
   end_orbit
end_platform

platform BEIDOU_IGSO_2(37256) BEIDOU
   orbit
1 37256U 10068A   14243.74097047 -.00000226  00000-0  10000-3 0   266
2 37256  54.2807 323.0779 0030327 200.9195 203.3104  1.00273779 13613
   end_orbit
end_platform

platform BEIDOU_IGSO_3(37384) BEIDOU
   orbit
1 37384U 11013A   14243.96604626 -.00000149  00000-0  10000-3 0  9500
2 37384  56.6044  83.6583 0024510 184.3871 178.7404  1.00288257 12499
   end_orbit
end_platform

platform BEIDOU_IGSO_4(37763) BEIDOU
   orbit
1 37763U 11038A   14243.57849890 -.00000057  00000-0  10000-3 0  7785
2 37763  54.7085 205.8439 0029988 202.9285 233.3054  1.00260971 11459
   end_orbit
end_platform

platform BEIDOU_IGSO_5(37948) BEIDOU
   orbit
1 37948U 11073A   14243.74142457 -.00000170  00000-0  10000-3 0  7880
2 37948  54.3810 322.5123 0031106 200.7002 178.9225  1.00282059 10219
   end_orbit
end_platform

platform BEIDOU_G5(38091) BEIDOU
   orbit
1 38091U 12008A   14243.84909582  .00000046  00000-0  00000+0 0  7437
2 38091   0.9286   2.4579 0002591 144.6388 197.2337  1.00276265  9286
   end_orbit
end_platform

platform BEIDOU_M3(38250) BEIDOU
   orbit
1 38250U 12018A   14243.47056919  .00000005  00000-0  10000-3 0  7453
2 38250  55.5695  88.5293 0023380 196.6660 337.4706  1.86233529 16062
   end_orbit
end_platform

platform BEIDOU_M4(38251) BEIDOU
   orbit
1 38251U 12018B   14243.40879215  .00000004  00000-0  10000-3 0  7605
2 38251  55.5053  88.0223 0026311 190.8844 347.3577  1.86234350 16065
   end_orbit
end_platform

platform BEIDOU_M5(38774) BEIDOU
   orbit
1 38774U 12050A   14243.64782197  .00000056  00000-0  00000+0 0  6183
2 38774  54.7926 208.1942 0026175 199.3029 288.6565  1.86232949 13451
   end_orbit
end_platform

platform BEIDOU_M6(38775) BEIDOU
   orbit
1 38775U 12050B   14243.54378983  .00000055  00000-0  00000+0 0  6153
2 38775  54.8983 207.7754 0019373 219.2392 244.5084  1.86233111 13447
   end_orbit
end_platform

platform BEIDOU_G6(38953) BEIDOU
   orbit
1 38953U 12059A   14244.10824734 -.00000148  00000-0  10000-3 0  5881
2 38953   0.4510 284.1219 0003040 232.3835 302.7272  1.00272184  6879
   end_orbit
end_platform

